,store_cd,store_name,prefecture_cd,prefecture,address,address_kana,tel_no,longitude,latitude,floor_area
0,S12014,千草台店,12,千葉県,千葉県千葉市稲毛区千草台一丁目,チバケンチバシイナゲクチグサダイイッチョウメ,043-123-4003,140.118,35.63559,1698.0
1,S13002,国分寺店,13,東京都,東京都国分寺市本多二丁目,トウキョウトコクブンジシホンダニチョウメ,042-123-4008,139.4802,35.70566,1735.0
2,S14010,菊名店,14,神奈川県,神奈川県横浜市港北区菊名一丁目,カナガワケンヨコハマシコウホククキクナイッチョウメ,045-123-4032,139.6326,35.50049,1732.0
3,S14033,阿久和店,14,神奈川県,神奈川県横浜市瀬谷区阿久和西一丁目,カナガワケンヨコハマシセヤクアクワニシイッチョウメ,045-123-4043,139.4961,35.45918,1495.0
4,S14036,相模原中央店,14,神奈川県,神奈川県相模原市中央二丁目,カナガワケンサガミハラシチュウオウニチョウメ,042-123-4045,139.3716,35.57327,1679.0
7,S14040,長津田店,14,神奈川県,神奈川県横浜市緑区長津田みなみ台五丁目,カナガワケンヨコハマシミドリクナガツタミナミダイゴチョウメ,045-123-4046,139.4994,35.52398,1548.0
9,S14050,阿久和西店,14,神奈川県,神奈川県横浜市瀬谷区阿久和西一丁目,カナガワケンヨコハマシセヤクアクワニシイッチョウメ,045-123-4053,139.4961,35.45918,1830.0
11,S13052,森野店,13,東京都,東京都町田市森野三丁目,トウキョウトマチダシモリノサンチョウメ,042-123-4030,139.4383,35.55293,1087.0
12,S14028,二ツ橋店,14,神奈川県,神奈川県横浜市瀬谷区二ツ橋町,カナガワケンヨコハマシセヤクフタツバシチョウ,045-123-4042,139.4963,35.46304,1574.0
16,S14012,本牧和田店,14,神奈川県,神奈川県横浜市中区本牧和田,カナガワケンヨコハマシナカクホンモクワダ,045-123-4034,139.6582,35.42156,1341.0
18,S14046,北山田店,14,神奈川県,神奈川県横浜市都筑区北山田一丁目,カナガワケンヨコハマシツヅキクキタヤマタイッチョウメ,045-123-4049,139.5916,35.56189,831.0
19,S14022,逗子店,14,神奈川県,神奈川県逗子市逗子一丁目,カナガワケンズシシズシイッチョウメ,046-123-4036,139.5789,35.29642,1838.0
20,S14011,日吉本町店,14,神奈川県,神奈川県横浜市港北区日吉本町四丁目,カナガワケンヨコハマシコウホククヒヨシホンチョウヨンチョウメ,045-123-4033,139.6316,35.54655,890.0
21,S13016,小金井店,13,東京都,東京都小金井市本町一丁目,トウキョウトコガネイシホンチョウイッチョウメ,042-123-4015,139.5094,35.70018,1399.0
22,S14034,川崎野川店,14,神奈川県,神奈川県川崎市宮前区野川,カナガワケンカワサキシミヤマエクノガワ,044-123-4044,139.5998,35.57693,1318.0
26,S14048,中川中央店,14,神奈川県,神奈川県横浜市都筑区中川中央二丁目,カナガワケンヨコハマシツヅキクナカガワチュウオウニチョウメ,045-123-4051,139.5758,35.54912,1657.0
27,S12007,佐倉店,12,千葉県,千葉県佐倉市上志津,チバケンサクラシカミシヅ,043-123-4001,140.1452,35.71872,1895.0
28,S14026,辻堂西海岸店,14,神奈川県,神奈川県藤沢市辻堂西海岸二丁目,カナガワケンフジサワシツジドウニシカイガンニチョウメ,046-123-4040,139.4466,35.32464,1732.0
29,S13041,八王子店,13,東京都,東京都八王子市大塚,トウキョウトハチオウジシオオツカ,042-123-4026,139.4235,35.63787,810.0
31,S14049,川崎大師店,14,神奈川県,神奈川県川崎市川崎区中瀬三丁目,カナガワケンカワサキシカワサキクナカゼサンチョウメ,044-123-4052,139.7327,35.53759,962.0
32,S14023,川崎店,14,神奈川県,神奈川県川崎市川崎区本町二丁目,カナガワケンカワサキシカワサキクホンチョウニチョウメ,044-123-4037,139.7028,35.53599,1804.0
33,S13018,清瀬店,13,東京都,東京都清瀬市松山一丁目,トウキョウトキヨセシマツヤマイッチョウメ,042-123-4017,139.5178,35.76885,1220.0
35,S14027,南藤沢店,14,神奈川県,神奈川県藤沢市南藤沢,カナガワケンフジサワシミナミフジサワ,046-123-4041,139.4896,35.33762,1521.0
36,S14021,伊勢原店,14,神奈川県,神奈川県伊勢原市伊勢原四丁目,カナガワケンイセハラシイセハラヨンチョウメ,046-123-4035,139.3129,35.40169,962.0
37,S14047,相模原店,14,神奈川県,神奈川県相模原市千代田六丁目,カナガワケンサガミハラシチヨダロクチョウメ,042-123-4050,139.3748,35.55959,1047.0
38,S12013,習志野店,12,千葉県,千葉県習志野市芝園一丁目,チバケンナラシノシシバゾノイッチョウメ,047-123-4002,140.022,35.66122,808.0
40,S14042,新山下店,14,神奈川県,神奈川県横浜市中区新山下二丁目,カナガワケンヨコハマシナカクシンヤマシタニチョウメ,045-123-4047,139.6593,35.43894,1044.0
42,S12030,八幡店,12,千葉県,千葉県市川市八幡三丁目,チバケンイチカワシヤワタサンチョウメ,047-123-4005,139.924,35.72318,1162.0
44,S14025,大和店,14,神奈川県,神奈川県大和市下和田,カナガワケンヤマトシシモワダ,046-123-4039,139.468,35.43414,1011.0
45,S14045,厚木店,14,神奈川県,神奈川県厚木市中町二丁目,カナガワケンアツギシナカチョウニチョウメ,046-123-4048,139.3651,35.44182,980.0
47,S12029,東野店,12,千葉県,千葉県浦安市東野一丁目,チバケンウラヤスシヒガシノイッチョウメ,047-123-4004,139.8968,35.65086,1101.0
49,S12053,高洲店,12,千葉県,千葉県浦安市高洲五丁目,チバケンウラヤスシタカスゴチョウメ,047-123-4006,139.9176,35.63755,1555.0
51,S14024,三田店,14,神奈川県,神奈川県川崎市多摩区三田四丁目,カナガワケンカワサキシタマクミタヨンチョウメ,044-123-4038,139.5424,35.6077,972.0
52,S14006,葛が谷店,14,神奈川県,神奈川県横浜市都筑区葛が谷,カナガワケンヨコハマシツヅキククズガヤ,045-123-4031,139.5633,35.53573,1886.0
